NORAD_CAT_ID,OBJECT_NAME,OBJECT_TYPE,EPOCH,MEAN_MOTION,ECCENTRICITY,INCLINATION,RA_OF_ASC_NODE,ARG_OF_PERICENTER,MEAN_ANOMALY,BSTAR,MEAN_MOTION_DOT,MEAN_MOTION_DDOT,TLE_LINE0,TLE_LINE1,TLE_LINE2,SEMIMAJOR_AXIS,PERIOD,APOGEE,PERIGEE,DECAYED
49141.0,STARLINK-3093,PAYLOAD,2023-03-12 15:30:50,14.98320006,0.000264,70.0015,170.4075,246.6291,113.459,4.189e-06,-4.3e-07,0.0,0 STARLINK-3093,1 49141U 21082M   23071.64642064 -.00000043  00000-0  41890-5 0  9992,2 49141  70.0015 170.4075 0002640 246.6291 113.4590 14.98320006 83456,6950.224,96.108,573.924,570.254,0.0
49141.0,STARLINK-3093,PAYLOAD,2023-03-13 05:56:02,14.98327685,0.0002984,70.0011,168.893,260.2591,99.8231,0.00023272,2.685e-05,0.0,0 STARLINK-3093,1 49141U 21082M   23072.24725022  .00002685  00000-0  23272-3 0  9990,2 49141  70.0011 168.8930 0002984 260.2591  99.8231 14.98327685 83548,6950.2,96.107,574.139,569.991,0.0
49141.0,STARLINK-3093,PAYLOAD,2023-03-14 05:58:01,14.98348162,0.0003246,69.9996,166.3669,263.5827,96.4963,0.00025695,2.976e-05,0.0,0 STARLINK-3093,1 49141U 21082M   23073.24863274  .00002976  00000-0  25695-3 0  9997,2 49141  69.9996 166.3669 0003246 263.5827  96.4963 14.98348162 83693,6950.137,96.106,574.258,569.746,0.0
49141.0,STARLINK-3093,PAYLOAD,2023-03-14 12:22:35,14.98323161,0.0003106,69.9999,165.694,270.4662,89.6141,2.0633e-05,1.53e-06,0.0,0 STARLINK-3093,1 49141U 21082M   23073.51569087  .00000153  00000-0  20633-4 0  9995,2 49141  69.9999 165.6940 0003106 270.4662  89.6141 14.98323161 83738,6950.214,96.107,574.238,569.92,0.0
49141.0,STARLINK-3093,PAYLOAD,2023-03-15 12:24:35,14.98347269,0.0002693,70.0005,163.1674,266.2455,93.8397,-2.6982e-05,-4.15e-06,0.0,0 STARLINK-3093,1 49141U 21082M   23074.51707607 -.00000415  00000-0 -26982-4 0  9994,2 49141  70.0005 163.1674 0002693 266.2455  93.8397 14.98347269 83880,6950.139,96.106,573.876,570.133,0.0
49141.0,STARLINK-3093,PAYLOAD,2023-03-16 06:02:04,14.98321104,0.0002903,70.0009,161.3155,265.5622,94.5205,6.3575e-05,6.65e-06,0.0,0 STARLINK-3093,1 49141U 21082M   23075.25144305  .00000665  00000-0  63575-4 0  9990,2 49141  70.0009 161.3155 0002903 265.5622  94.5205 14.98321104 83998,6950.22,96.108,574.103,570.068,0.0
49141.0,STARLINK-3093,PAYLOAD,2023-03-16 10:50:29,14.98314319,0.000316,70.0,160.812,267.4804,92.5993,-4.3535e-05,-6.12e-06,0.0,0 STARLINK-3093,1 49141U 21082M   23075.45173123 -.00000612  00000-0 -43535-4 0  9990,2 49141  70.0000 160.8120 0003160 267.4804  92.5993 14.98314319 84021,6950.241,96.108,574.303,569.91,0.0
49141.0,STARLINK-3093,PAYLOAD,2023-03-17 12:28:39,14.98319766,0.0003355,69.9998,158.1204,268.8305,91.247,-0.00016906,-2.109e-05,0.0,0 STARLINK-3093,1 49141U 21082M   23076.51989818 -.00002109  00000-0 -16906-3 0  9998,2 49141  69.9998 158.1204 0003355 268.8305  91.2470 14.98319766 84188,6950.225,96.108,574.421,569.758,0.0
49141.0,STARLINK-3093,PAYLOAD,2023-03-17 22:05:27,14.98321323,0.0002709,70.001,157.1124,263.6742,96.4109,-7.3456e-05,-9.69e-06,0.0,0 STARLINK-3093,1 49141U 21082M   23076.92045765 -.00000969  00000-0 -73456-4 0  9993,2 49141  70.0010 157.1124 0002709 263.6742  96.4109 14.98321323 84241,6950.22,96.108,573.968,570.202,0.0
49141.0,STARLINK-3093,PAYLOAD,2023-03-18 04:29:58,14.98323664,0.0003375,69.9991,156.4357,266.8974,93.1799,0.00021309,2.45e-05,0.0,0 STARLINK-3093,1 49141U 21082M   23077.18748775  .00002450  00000-0  21309-3 0  9997,2 49141  69.9991 156.4357 0003375 266.8974  93.1799 14.98323664 84281,6950.212,96.107,574.423,569.732,0.0
49141.0,STARLINK-3093,PAYLOAD,2023-03-18 22:07:27,14.98328928,0.0002875,70.0007,154.5858,257.8171,102.2666,0.00015843,1.798e-05,0.0,0 STARLINK-3093,1 49141U 21082M   23077.92184688  .00001798  00000-0  15843-3 0  9996,2 49141  70.0007 154.5858 0002875 257.8171 102.2666 14.98328928 84395,6950.196,96.107,574.059,570.063,0.0
49141.0,STARLINK-3093,PAYLOAD,2023-03-19 06:08:08,14.9831984,0.0003469,69.9994,153.744,270.7992,89.277,0.00017655,2.014e-05,0.0,0 STARLINK-3093,1 49141U 21082M   23078.25565302  .00002014  00000-0  17655-3 0  9994,2 49141  69.9994 153.7440 0003469 270.7992  89.2770 14.98319840 84449,6950.224,96.108,574.5,569.678,0.0
49141.0,STARLINK-3093,PAYLOAD,2023-03-19 12:32:40,14.98327833,0.0003485,69.9989,153.0708,269.3871,90.6888,0.00016254,1.847e-05,0.0,0 STARLINK-3093,1 49141U 21082M   23078.52268863  .00001847  00000-0  16254-3 0  9993,2 49141  69.9989 153.0708 0003485 269.3871  90.6888 14.98327833 84482,6950.2,96.107,574.487,569.642,0.0
49141.0,STARLINK-3093,PAYLOAD,2023-03-19 14:08:48,14.98330313,0.000346,69.999,152.9023,269.3725,90.7038,0.00018212,2.081e-05,0.0,0 STARLINK-3093,1 49141U 21082M   23078.58944627  .00002081  00000-0  18212-3 0  9995,2 49141  69.9990 152.9023 0003460 269.3725  90.7038 14.98330313 84499,6950.192,96.107,574.462,569.652,0.0
49141.0,STARLINK-3093,PAYLOAD,2023-03-20 12:34:41,14.98336218,0.0003394,69.9988,150.5449,269.8328,90.2442,-7.3257e-05,-9.67e-06,0.0,0 STARLINK-3093,1 49141U 21082M   23079.52408662 -.00000967  00000-0 -73257-4 0  9998,2 49141  69.9988 150.5449 0003394 269.8328  90.2442 14.98336218 84632,6950.174,96.107,574.398,569.68,0.0
49141.0,STARLINK-3093,PAYLOAD,2023-03-20 14:10:49,14.98336909,0.0003151,69.9998,150.3774,267.9832,92.0967,-6.0763e-05,-8.18e-06,0.0,0 STARLINK-3093,1 49141U 21082M   23079.59084578 -.00000818  00000-0 -60763-4 0  9994,2 49141  69.9998 150.3774 0003151 267.9832  92.0967 14.98336909 84642,6950.172,96.107,574.227,569.847,0.0
49141.0,STARLINK-3093,PAYLOAD,2023-03-20 17:23:04,14.98340688,0.0003132,69.9999,150.041,267.0799,93.0002,-1.3748e-05,-2.57e-06,0.0,0 STARLINK-3093,1 49141U 21082M   23079.72436146 -.00000257  00000-0 -13748-4 0  9999,2 49141  69.9999 150.0410 0003132 267.0799  93.0002 14.98340688 84661,6950.16,96.106,574.202,569.848,0.0
49141.0,STARLINK-3093,PAYLOAD,2023-03-21 12:36:42,14.98328241,0.000313,70.0004,148.0224,259.9315,100.1491,1.9191e-05,1.36e-06,0.0,0 STARLINK-3093,1 49141U 21082M   23080.52548693  .00000136  00000-0  19191-4 0  9992,2 49141  70.0004 148.0224 0003130 259.9315 100.1491 14.98328241 84789,6950.198,96.107,574.239,569.888,0.0
49141.0,STARLINK-3093,PAYLOAD,2023-03-22 12:38:42,14.98330566,0.0003056,69.9995,145.4949,263.1845,96.8966,5.4318e-05,5.55e-06,0.0,0 STARLINK-3093,1 49141U 21082M   23081.52688534  .00000555  00000-0  54318-4 0  9997,2 49141  69.9995 145.4949 0003056 263.1845  96.8966 14.98330566 84930,6950.191,96.107,574.18,569.932,0.0
49141.0,STARLINK-3093,PAYLOAD,2023-03-22 14:14:50,14.98331597,0.0003011,69.9998,145.3267,262.8103,97.2713,7.0038e-05,7.43e-06,0.0,0 STARLINK-3093,1 49141U 21082M   23081.59364429  .00000743  00000-0  70038-4 0  9994,2 49141  69.9998 145.3267 0003011 262.8103  97.2713 14.98331597 84940,6950.188,96.107,574.146,569.96,0.0
49141.0,STARLINK-3093,PAYLOAD,2023-03-23 12:40:43,14.98333687,0.0003135,69.9991,142.97,265.8317,94.2483,9.6307e-05,1.056e-05,0.0,0 STARLINK-3093,1 49141U 21082M   23082.52828087  .00001056  00000-0  96307-4 0  9998,2 49141  69.9991 142.9700 0003135 265.8317  94.2483 14.98333687 85084,6950.181,96.107,574.225,569.868,0.0
49141.0,STARLINK-3093,PAYLOAD,2023-03-23 20:41:23,14.98337869,0.0003111,69.9994,142.129,268.4636,91.6167,0.00013027,1.462e-05,0.0,0 STARLINK-3093,1 49141U 21082M   23082.86207656  .00001462  00000-0  13027-3 0  9996,2 49141  69.9994 142.1290 0003111 268.4636  91.6167 14.98337869 85132,6950.169,96.106,574.196,569.871,0.0
49141.0,STARLINK-3093,PAYLOAD,2023-03-24 04:42:03,14.9834677,0.0003162,69.9992,141.2874,267.1717,92.908,0.00021437,2.467e-05,0.0,0 STARLINK-3093,1 49141U 21082M   23083.19586886  .00002467  00000-0  21437-3 0  9998,2 49141  69.9992 141.2874 0003162 267.1717  92.9080 14.98346770 85184,6950.141,96.106,574.204,569.808,0.0
49141.0,STARLINK-3093,PAYLOAD,2023-03-24 12:42:42,14.98356156,0.0002943,69.9996,140.4463,263.263,96.8194,0.00031277,3.643e-05,0.0,0 STARLINK-3093,1 49141U 21082M   23083.52965684  .00003643  00000-0  31277-3 0  9992,2 49141  69.9996 140.4463 0002943 263.2630  96.8194 14.98356156 85234,6950.112,96.105,574.022,569.932,0.0
49141.0,STARLINK-3093,PAYLOAD,2023-03-24 20:43:24,14.98326695,0.0002231,70.0009,139.6069,268.7914,91.299,6.5078e-05,6.84e-06,0.0,0 STARLINK-3093,1 49141U 21082M   23083.86348172  .00000684  00000-0  65078-4 0  9995,2 49141  70.0009 139.6069 0002231 268.7914  91.2990 14.98326695 85282,6950.203,96.107,573.619,570.518,0.0
49141.0,STARLINK-3093,PAYLOAD,2023-03-25 04:44:07,14.9830202,0.0002925,69.9996,138.7634,272.5576,87.5248,-0.00029947,-3.662e-05,0.0,0 STARLINK-3093,1 49141U 21082M   23084.19730473 -.00003662  00000-0 -29947-3 0  9996,2 49141  69.9996 138.7634 0002925 272.5576  87.5248 14.98302020 85335,6950.279,96.109,574.177,570.111,0.0
49141.0,STARLINK-3093,PAYLOAD,2023-03-25 12:44:46,14.98299506,0.000303,70.0005,137.9216,275.531,84.5504,-0.00070217,-8.454e-05,0.0,0 STARLINK-3093,1 49141U 21082M   23084.53109328 -.00008454  00000-0 -70217-3 0  9993,2 49141  70.0005 137.9216 0003030 275.5310  84.5504 14.98299506 85384,6950.287,96.109,574.258,570.046,0.0
49141.0,STARLINK-3093,PAYLOAD,2023-03-26 04:46:07,14.98305724,0.00038,69.9992,136.238,285.2622,74.8117,3.3719e-05,3.09e-06,0.0,0 STARLINK-3093,1 49141U 21082M   23085.19870171  .00000309  00000-0  33719-4 0  9993,2 49141  69.9992 136.2380 0003800 285.2622  74.8117 14.98305724 85482,6950.268,96.109,574.774,569.492,0.0
49141.0,STARLINK-3093,PAYLOAD,2023-03-26 20:47:28,14.98332919,0.0003446,69.9998,134.5537,281.9077,78.1696,0.0012766,0.00015174,0.0,0 STARLINK-3093,1 49141U 21082M   23085.86630729  .00015174  00000-0  12766-2 0  9993,2 49141  69.9998 134.5537 0003446 281.9077  78.1696 14.98332919 85582,6950.184,96.107,574.444,569.654,0.0
49141.0,STARLINK-3093,PAYLOAD,2023-03-27 12:48:57,14.98002591,0.0003505,69.9998,132.8703,277.8972,82.1789,-0.012085,-0.00140257,0.0,0 STARLINK-3093,1 49141U 21082M   23086.53399847 -.00140257  00000-0 -12085-1 0  9997,2 49141  69.9998 132.8703 0003505 277.8972  82.1789 14.98002591 85681,6951.206,96.128,575.507,570.634,0.0
